     2.10           G: GLONASS NAV DATA                     RINEX VERSION / TYPE
teqc  2015Jun23                         20210507 02:25:47UTCPGM / RUN BY / DATE
Linux 2.4.21-27.ELsmp|Opteron|gcc -static|Linux x86_64|=+   COMMENT
  2021     4    13    8.847564458847D-09                    CORR TO SYSTEM TIME
                                                            END OF HEADER
 6 21  4 14 11 45  0.0 1.962091773748D-04 0.000000000000D+00 4.140000000000D+04
   -1.507977832031D+04 9.500522613525D-01-0.000000000000D+00 0.000000000000D+00
    1.520837304688D+04-1.647344589233D+00-1.862645149231D-09-4.000000000000D+00
    1.386830810547D+04 2.836673736572D+00-1.862645149231D-09 0.000000000000D+00
 8 21  4 14 11 45  0.0-5.850754678249D-05-0.000000000000D+00 4.140000000000D+04
   -5.950087890625D+02-1.020070075989D+00 0.000000000000D+00 0.000000000000D+00
    1.869971240234D+04 2.152452468872D+00-1.862645149231D-09 6.000000000000D+00
   -1.728820947266D+04 2.353289604187D+00 1.862645149231D-09 0.000000000000D+00
10 21  4 14 11 45  0.0-6.796140223742D-05 0.000000000000D+00 4.140000000000D+04
   -4.614106445312D+02-1.380858421326D+00-0.000000000000D+00 0.000000000000D+00
    1.642561474609D+04-2.287909507751D+00-1.862645149231D-09-7.000000000000D+00
   -1.954874462891D+04-1.884259223938D+00 1.862645149231D-09 0.000000000000D+00
12 21  4 14 11 45  0.0 2.207625657320D-04 3.637978807092D-12 4.188000000000D+04
    1.653485009766D+04 1.061771392822D+00 4.656612873077D-09 0.000000000000D+00
    1.452230419922D+04 1.418712615967D+00 9.313225746155D-10-1.000000000000D+00
    1.293925244141D+04-2.951871871948D+00 0.000000000000D+00 0.000000000000D+00
21 21  4 14 11 45  0.0-2.016676589847D-04-2.728484105319D-12 4.299000000000D+04
   -1.018516650391D+04-2.904343605042D+00 0.000000000000D+00 0.000000000000D+00
    9.848836425781D+03 1.843805313110D-01-9.313225746155D-10 4.000000000000D+00
    2.120539892578D+04-1.482153892517D+00-1.862645149231D-09 0.000000000000D+00
12 21  4 14 12 15  0.0 2.207690849900D-04 3.637978807092D-12 4.320000000000D+04
    1.820306445312D+04 7.487773895264D-01 4.656612873077D-09 0.000000000000D+00
    1.638386083984D+04 6.529321670532D-01-0.000000000000D+00-1.000000000000D+00
    7.195276367188D+03-3.389004707336D+00 9.313225746155D-10 0.000000000000D+00
 6 21  4 14 12 15  0.0 1.962101086974D-04 0.000000000000D+00 4.320000000000D+04
   -1.337782373047D+04 9.006490707397D-01-0.000000000000D+00 0.000000000000D+00
    1.159084472656D+04-2.349670410156D+00-9.313225746155D-10-4.000000000000D+00
    1.837263916016D+04 2.135632514954D+00-1.862645149231D-09 0.000000000000D+00
 7 21  4 14 12 15  0.0-4.253908991814D-05 0.000000000000D+00 4.320000000000D+04
   -1.048207861328D+04 3.334026336670D-01-0.000000000000D+00 0.000000000000D+00
    2.296763330078D+04-4.301977157593D-01-1.862645149231D-09 5.000000000000D+00
    3.841687011719D+03 3.516456604004D+00-0.000000000000D+00 0.000000000000D+00
 8 21  4 14 12 15  0.0-5.850847810507D-05-0.000000000000D+00 4.320000000000D+04
   -1.922644531250D+03-4.695205688477D-01 0.000000000000D+00 0.000000000000D+00
    2.216381445312D+04 1.653048515320D+00-1.862645149231D-09 6.000000000000D+00
   -1.243650244141D+04 3.002217292786D+00 9.313225746155D-10 0.000000000000D+00
10 21  4 14 12 15  0.0-6.796140223742D-05 0.000000000000D+00 4.320000000000D+04
   -3.455076660156D+03-1.930585861206D+00-1.862645149231D-09 0.000000000000D+00
    1.222518554688D+04-2.331685066223D+00-9.313225746155D-10-7.000000000000D+00
   -2.214345117188D+04-9.799451828003D-01 1.862645149231D-09 0.000000000000D+00
21 21  4 14 12 15  0.0-2.016732469201D-04-2.728484105319D-12 4.320000000000D+04
   -1.497862988281D+04-2.379027366638D+00-9.313225746155D-10 0.000000000000D+00
    1.052692480469D+04 5.421533584595D-01-9.313225746155D-10 4.000000000000D+00
    1.775178271484D+04-2.330313682556D+00-1.862645149231D-09 0.000000000000D+00
 1 21  4 14 12 15  0.0 7.786788046360D-05 0.000000000000D+00 4.422000000000D+04
    7.128111816406D+03-9.296302795410D-01 0.000000000000D+00 0.000000000000D+00
    1.137082128906D+04 2.821195602417D+00-9.313225746155D-10 1.000000000000D+00
   -2.168204638672D+04 1.174916267395D+00 2.793967723846D-09 0.000000000000D+00
12 21  4 14 12 45  0.0 2.207746729255D-04 3.637978807092D-12 4.500000000000D+04
    1.908673730469D+04 1.976900100708D-01 3.725290298462D-09 0.000000000000D+00
    1.691771484375D+04-3.863906860352D-02-9.313225746155D-10-1.000000000000D+00
    8.960693359375D+02-3.564756393433D+00 9.313225746155D-10 0.000000000000D+00
 1 21  4 14 12 45  0.0 7.786881178617D-05 0.000000000000D+00 4.500000000000D+04
    5.902941406250D+03-4.374208450317D-01-0.000000000000D+00 0.000000000000D+00
    1.623399169922D+04 2.533330917358D+00-1.862645149231D-09 1.000000000000D+00
   -1.875556005859D+04 2.055632591248D+00 1.862645149231D-09 0.000000000000D+00
 7 21  4 14 12 45  0.0-4.253815859556D-05 0.000000000000D+00 4.500000000000D+04
   -9.742208984375D+03 4.469118118286D-01-0.000000000000D+00 0.000000000000D+00
    2.141985546875D+04-1.285715103149D+00-1.862645149231D-09 5.000000000000D+00
    9.941850585938D+03 3.217706680298D+00-9.313225746155D-10 0.000000000000D+00
 8 21  4 14 12 45  0.0-5.850847810507D-05-0.000000000000D+00 4.500000000000D+04
   -2.365863281250D+03-5.234813690186D-02-0.000000000000D+00 0.000000000000D+00
    2.451386962891D+04 9.268589019775D-01-1.862645149231D-09 6.000000000000D+00
   -6.620716308594D+03 3.417618751526D+00 0.000000000000D+00 0.000000000000D+00
10 21  4 14 12 45  0.0-6.796140223742D-05-0.000000000000D+00 4.500000000000D+04
   -7.326837890625D+03-2.339826583862D+00-2.793967723846D-09 0.000000000000D+00
    8.192556152344D+03-2.108530044556D+00-9.313225746155D-10-7.000000000000D+00
   -2.303048876953D+04 9.250640869141D-04 9.313225746155D-10 0.000000000000D+00
21 21  4 14 12 45  0.0-2.016779035330D-04-2.728484105319D-12 4.500000000000D+04
   -1.862143457031D+04-1.641064643860D+00-1.862645149231D-09 0.000000000000D+00
    1.167997265625D+04 7.001075744629D-01-9.313225746155D-10 4.000000000000D+00
    1.292459228516D+04-2.998403549194D+00-1.862645149231D-09 0.000000000000D+00
12 21  4 14 13 15  0.0 2.207802608609D-04 2.728484105319D-12 4.680000000000D+04
    1.881053955078D+04-5.260009765625D-01 2.793967723846D-09 0.000000000000D+00
    1.634751416016D+04-5.600309371948D-01-1.862645149231D-09-1.000000000000D+00
   -5.472272949219D+03-3.465266227722D+00 1.862645149231D-09 0.000000000000D+00
 1 21  4 14 13 15  0.0 7.786974310875D-05 0.000000000000D+00 4.680000000000D+04
    5.501743652344D+03-3.070163726807D-02-0.000000000000D+00 0.000000000000D+00
    2.032640039062D+04 1.972880363464D+00-1.862645149231D-09 1.000000000000D+00
   -1.437738867188D+04 2.777395248413D+00 9.313225746155D-10 0.000000000000D+00
 7 21  4 14 13 15  0.0-4.253722727299D-05 0.000000000000D+00 4.680000000000D+04
   -9.019635253906D+03 3.178405761719D-01-0.000000000000D+00 0.000000000000D+00
    1.838750195312D+04-2.060853004456D+00-9.313225746155D-10 5.000000000000D+00
    1.527661767578D+04 2.671566009521D+00-1.862645149231D-09 0.000000000000D+00
 8 21  4 14 13 15  0.0-5.850940942764D-05-0.000000000000D+00 4.680000000000D+04
   -2.236015625000D+03 1.579647064209D-01-0.000000000000D+00 0.000000000000D+00
    2.541768994141D+04 6.339550018311D-02-1.862645149231D-09 6.000000000000D+00
   -2.924614257812D+02 3.568074226379D+00-0.000000000000D+00 0.000000000000D+00
21 21  4 14 13 15  0.0-2.016834914684D-04-2.728484105319D-12 4.680000000000D+04
   -2.082120361328D+04-7.948293685913D-01-3.725290298462D-09 0.000000000000D+00
    1.289533935547D+04 6.062984466553D-01-9.313225746155D-10 4.000000000000D+00
    7.097054199219D+03-3.434557914734D+00-1.862645149231D-09 0.000000000000D+00
22 21  4 14 13 15  0.0-1.077530905604D-04-9.094947017729D-13 4.728000000000D+04
   -8.003623535156D+03-2.481331825256D+00-0.000000000000D+00 0.000000000000D+00
    1.339365039062D+04 1.239215850830D+00-9.313225746155D-10-3.000000000000D+00
    2.019914794922D+04-1.794055938721D+00-1.862645149231D-09 0.000000000000D+00
12 21  4 14 13 45  0.0 2.207858487964D-04 2.728484105319D-12 4.860000000000D+04
    1.714757568359D+04-1.325073242188D+00 9.313225746155D-10 0.000000000000D+00
    1.504315185547D+04-8.469343185425D-01-1.862645149231D-09-1.000000000000D+00
   -1.141772851562D+04-3.097871780396D+00 1.862645149231D-09 0.000000000000D+00
 1 21  4 14 13 45  0.0 7.787067443132D-05 0.000000000000D+00 4.860000000000D+04
    5.687874023438D+03 2.028923034668D-01-9.313225746155D-10 0.000000000000D+00
    2.321308007812D+04 1.208029747009D+00-1.862645149231D-09 1.000000000000D+00
   -8.886237792969D+03 3.284218788147D+00 9.313225746155D-10 0.000000000000D+00
 7 21  4 14 13 45  0.0-4.253629595041D-05 0.000000000000D+00 4.860000000000D+04
   -8.718471679688D+03-1.081943511963D-02-0.000000000000D+00 0.000000000000D+00
    1.411233984375D+04-2.650989532471D+00-9.313225746155D-10 5.000000000000D+00
    1.943604589844D+04 1.920208930969D+00-1.862645149231D-09 0.000000000000D+00
 8 21  4 14 13 45  0.0-5.850940942764D-05 0.000000000000D+00 4.860000000000D+04
   -1.942762695312D+03 1.271781921387D-01-9.313225746155D-10 0.000000000000D+00
    2.472663232422D+04-8.256950378418D-01-1.862645149231D-09 6.000000000000D+00
    6.058531738281D+03 3.442880630493D+00-9.313225746155D-10 0.000000000000D+00
21 21  4 14 13 45  0.0-2.016881480813D-04-2.728484105319D-12 4.860000000000D+04
   -2.148926757812D+04 4.082489013672D-02-3.725290298462D-09 0.000000000000D+00
    1.370634228516D+04 2.535657882690D-01-0.000000000000D+00 4.000000000000D+00
    7.201069335938D+02-3.604871749878D+00-9.313225746155D-10 0.000000000000D+00
22 21  4 14 13 45  0.0-1.077558845282D-04-9.094947017729D-13 4.860000000000D+04
   -1.188239013672D+04-1.803388595581D+00-1.862645149231D-09 0.000000000000D+00
    1.573261669922D+04 1.316947937012D+00-9.313225746155D-10-3.000000000000D+00
    1.623251269531D+04-2.584565162659D+00-1.862645149231D-09 0.000000000000D+00
